OBJECT_NAME,OBJECT_ID,EPOCH,MEAN_MOTION,ECCENTRICITY,INCLINATION,RA_OF_ASC_NODE,ARG_OF_PERICENTER,MEAN_ANOMALY,EPHEMERIS_TYPE,CLASSIFICATION_TYPE,NORAD_CAT_ID,ELEMENT_SET_NO,REV_AT_EPOCH,BSTAR,MEAN_MOTION_DOT,MEAN_MOTION_DDOT
STARLINK-36437,2026-008W,2026-07-20T06:50:32.614080,15.27586559,.00010727,43.0007,176.1554,264.7456,95.3273,0,U,67465,999,2985,.24630932E-3,.6523E-4,0
STARLINK-36520,2026-008X,2026-07-19T22:28:30.950976,15.27586279,.00019796,43.0021,178.7138,280.3779,79.6849,0,U,67466,999,2979,.27356255E-3,.7275E-4,0
STARLINK-36425,2026-008Y,2026-07-19T23:53:25.242720,15.27602268,.00034558,43.0026,178.3035,306.6302,53.4232,0,U,67467,999,2980,.27936676E-3,.7439E-4,0
STARLINK-36414,2026-008Z,2026-07-20T05:10:50.102688,15.27581683,.00008935,42.9982,176.4873,276.6717,83.4033,0,U,67468,999,2984,.19181324E-3,.502E-4,0
STARLINK-36441,2026-008AA,2026-07-19T22:24:48.737952,15.27592141,.00013844,43.0014,178.6839,268.1856,91.8837,0,U,67469,999,2979,.31744987E-3,.8487E-4,0
STARLINK-36454,2026-008AB,2026-07-20T06:56:05.802720,15.27570956,.00011528,43.0003,176.1769,278.2537,81.8184,0,U,67470,999,2985,.33411846E-3,.8941E-4,0
STARLINK-36334,2026-008AC,2026-07-19T05:18:20.637216,15.27583646,.00017062,43.0009,182.7881,272.9523,87.1133,0,U,67471,999,2968,.21645435E-3,.5699E-4,0
STARLINK-36269,2026-008AD,2026-07-19T23:47:52.067040,15.27590391,.00013066,43.0005,178.2507,265.3919,94.6783,0,U,67472,999,2980,.27886434E-3,.7422E-4,0
STARLINK-36408,2026-008AE,2026-07-19T23:36:46.090656,15.27594658,.00005326,43.0011,178.1893,49.4946,310.5952,0,U,67473,999,2980,.32842616E-3,.879E-4,0
ALSAT-3A,2026-009A,2026-07-20T02:24:03.386016,15.23147535,.00099339,97.4527,274.7541,4.1826,355.9492,0,U,67474,999,2828,.12527061E-3,.289E-4,0
TIANQI-37,2026-010A,2026-07-20T07:23:02.530752,13.99175666,.00112941,44.9827,294.3733,129.5106,230.6726,0,U,67476,999,2603,.89075736E-4,.1E-7,0
TIANQI-38,2026-010B,2026-07-20T06:57:58.713696,13.99171076,.00101391,44.9790,294.2146,137.5478,222.6140,0,U,67477,999,2603,.90915614E-4,.4E-7,0
TIANQI-39,2026-010C,2026-07-20T06:34:14.732832,13.99222021,.00139692,44.9802,290.4636,152.2383,207.9198,0,U,67478,999,2608,.91281741E-4,.5E-7,0
TIANQI-40,2026-010D,2026-07-19T14:41:38.300640,13.99158273,.0010212,44.9836,297.6723,140.8236,219.3337,0,U,67479,999,2593,.85864E-4,-.3E-7,0
SZ-20 MODULE,2025-082C,2026-07-20T03:49:07.422816,15.70607525,.00139716,41.4763,112.9322,241.6564,118.2870,0,U,67481,999,29841,.14245807E-3,.17867E-3,0
2025-313BE,2025-313BE,2026-07-20T03:42:51.553440,15.63158395,.00117216,97.3821,279.8423,217.6183,142.4257,0,U,67482,999,2840,.2079911E-2,.194362E-2,0
ION SCV-021,2025-276DT,2026-07-20T02:49:59.872512,14.97945977,.00100314,97.5224,270.3676,12.9887,347.1592,0,U,67483,999,2753,.44507882E-4,.469E-5,0
STARLINK-36551,2026-012A,2026-07-19T13:09:52.913376,15.27580404,.0000658,42.9973,290.1144,283.5865,76.4914,0,U,67493,999,2792,.30151E-3,.8044E-4,0
STARLINK-36396,2026-012B,2026-07-20T05:57:51.461856,15.27602433,.0001616,42.9992,285.9260,270.3459,89.7208,0,U,67494,999,2803,.32934092E-3,.8818E-4,0
STARLINK-36550,2026-012C,2026-07-19T22:23:43.354752,15.27592240,.00008015,42.9985,287.8456,30.1986,329.8912,0,U,67495,999,2798,.10806725E-3,.2714E-4,0
STARLINK-36534,2026-012D,2026-07-20T06:05:12.916608,15.27623826,.0001375,42.9998,285.9462,274.6752,85.3943,0,U,67496,999,2803,.71757344E-3,.19563E-3,0
STARLINK-36555,2026-012E,2026-07-20T06:08:56.592384,15.27589151,.00013756,42.9993,285.9639,281.3570,78.7127,0,U,67497,999,2803,.33312231E-3,.8918E-4,0
STARLINK-36081,2026-012F,2026-07-19T14:18:07.831008,15.27579752,.0001501,42.9996,289.6152,271.3076,88.7604,0,U,67498,999,2793,.1738E-3,.4523E-4,0
STARLINK-36558,2026-012G,2026-07-20T05:54:10.029024,15.27592830,.00016128,42.9994,285.8937,266.6223,93.4444,0,U,67499,999,2803,.45463395E-3,.12274E-3,0
STARLINK-36557,2026-012H,2026-07-19T14:07:01.089120,15.27583363,.00027048,42.9993,289.5450,277.5700,82.4845,0,U,67500,999,2793,.29660013E-3,.7909E-4,0
STARLINK-36433,2026-012J,2026-07-20T05:43:02.347968,15.27581786,.00015067,43.0012,285.8238,272.5738,87.4942,0,U,67501,999,2803,.22392894E-3,.5905E-4,0
STARLINK-36554,2026-012K,2026-07-20T05:33:47.105280,15.27582885,.00028549,43.0056,285.7789,287.9395,72.1145,0,U,67502,999,2803,.21492508E-3,.5657E-4,0
STARLINK-36552,2026-012L,2026-07-20T05:28:14.302848,15.27582879,.00037432,43.0021,285.7394,287.6409,72.4033,0,U,67503,999,2803,.40743515E-3,.10968E-3,0
STARLINK-36512,2026-012M,2026-07-20T05:17:07.862496,15.27586841,.00008778,43.0002,285.6805,274.6912,85.3839,0,U,67504,999,2803,.26129866E-3,.6937E-4,0
STARLINK-36545,2026-012N,2026-07-20T05:11:34.628064,15.27587831,.00010635,42.9988,285.6507,293.8316,66.2424,0,U,67505,999,2803,.29380982E-3,.7834E-4,0
STARLINK-36553,2026-012P,2026-07-20T06:40:11.185536,15.27582253,.00021202,43.0020,285.2510,292.6683,67.3944,0,U,67506,999,2804,.24674815E-3,.6534E-4,0
STARLINK-36521,2026-012Q,2026-07-20T06:36:28.639872,15.27594607,.00008224,42.9977,285.2270,227.3637,132.7146,0,U,67507,999,2804,.36886916E-3,.9907E-4,0
STARLINK-36526,2026-012R,2026-07-20T06:30:56.016288,15.27580706,.00012537,43.0003,285.1981,277.2940,82.7769,0,U,67508,999,2804,.23404443E-3,.6184E-4,0
STARLINK-36541,2026-012S,2026-07-20T06:23:45.057408,15.27585434,.00010838,42.9986,286.0534,274.9622,85.1105,0,U,67509,999,2803,.2940716E-3,.784E-4,0
STARLINK-36549,2026-012T,2026-07-20T06:32:46.744800,15.27581993,.00008383,42.9976,285.1937,287.3503,72.7257,0,U,67510,999,2804,.27282819E-3,.7254E-4,0
STARLINK-36540,2026-012U,2026-07-20T06:18:11.974176,15.27586071,.00006039,42.9967,286.0243,292.6174,67.4613,0,U,67511,999,2803,.3883935E-3,.10443E-3,0
STARLINK-36538,2026-012V,2026-07-20T06:10:47.385696,15.27594011,.00007161,42.9971,285.9662,284.8510,75.2262,0,U,67512,999,2803,.33669333E-3,.9018E-4,0
STARLINK-36531,2026-012W,2026-07-20T05:55:59.171232,15.27585388,.00018781,42.9986,285.8860,268.2642,91.7995,0,U,67513,999,2803,.18674351E-3,.4881E-4,0
STARLINK-36530,2026-012X,2026-07-19T06:18:05.314464,15.27586295,.0001696,42.9993,291.3999,273.4039,86.6619,0,U,67514,999,2788,.21681084E-3,.571E-4,0
STARLINK-36543,2026-012Y,2026-07-20T05:44:51.946368,15.27600626,.00011791,42.9983,285.8350,299.4552,60.6182,0,U,67515,999,2803,.30667402E-3,.8192E-4,0
STARLINK-36537,2026-012Z,2026-07-20T05:30:05.069376,15.27586259,.00014213,42.9965,285.7438,258.8024,101.2668,0,U,67516,999,2803,.28046684E-3,.7465E-4,0
STARLINK-36544,2026-012AA,2026-07-20T07:13:29.586432,15.27582133,.00016229,43.0012,285.4278,265.5012,94.5655,0,U,67517,999,2804,.40415449E-3,.10876E-3,0
STARLINK-36412,2026-012AB,2026-07-20T06:47:35.053440,15.27591299,.00005658,43.0023,285.2856,281.4284,78.6504,0,U,67518,999,2804,.49262409E-3,.13323E-3,0
STARLINK-36415,2026-012AC,2026-07-20T05:07:52.635360,15.27586271,.0001002,42.9992,285.6175,280.1031,79.9707,0,U,67519,999,2803,.52237571E-3,.14143E-3,0
STARLINK-36547,2026-012AD,2026-07-20T05:18:58.903776,15.27581377,.00014942,43.0016,285.6852,276.2818,83.7864,0,U,67520,999,2803,.25226907E-3,.6686E-4,0
STARLINK-36444,2026-012AE,2026-07-20T06:58:41.257920,15.27584286,.00014822,43.0013,285.3466,276.1143,83.9540,0,U,67521,999,2804,.22706082E-3,.5992E-4,0
HULIANWANG DIGUI-146,2026-013A,2026-07-19T11:40:00.968448,13.29325349,.00013565,50.0062,240.0677,235.3019,124.7726,0,U,67522,999,2434,.38614679E-4,-.106E-5,0
HULIANWANG DIGUI-147,2026-013B,2026-07-20T03:42:05.283648,13.29328994,.00012596,50.0033,237.5483,238.7045,121.3704,0,U,67523,999,2443,.48373327E-4,-.102E-5,0
HULIANWANG DIGUI-148,2026-013C,2026-07-19T11:15:42.127776,13.29326880,.0001296,50.0072,239.9953,234.4612,125.6140,0,U,67524,999,2434,.46732974E-4,-.102E-5,0
HULIANWANG DIGUI-149,2026-013D,2026-07-16T12:41:47.638176,13.29331310,.0001512,50.0074,250.4586,225.6042,134.4706,0,U,67525,999,2395,.13371E-4,-.118E-5,0
HULIANWANG DIGUI-150,2026-013E,2026-07-20T01:05:55.411872,13.29324603,.00012008,50.0033,237.6398,237.9471,122.1285,0,U,67526,999,2444,-.10313896E-3,-.172E-5,0
HULIANWANG DIGUI-151,2026-013F,2026-07-18T02:23:10.664736,13.29327305,.00012197,50.0089,244.7612,229.8382,130.2384,0,U,67527,999,2416,-.83431219E-4,-.163E-5,0
HULIANWANG DIGUI-152,2026-013G,2026-07-19T08:39:24.607008,13.29332797,.00013071,50.0020,240.0126,236.1529,123.9219,0,U,67528,999,2433,.46341406E-4,-.103E-5,0
HULIANWANG DIGUI-153,2026-013H,2026-07-20T02:30:08.136576,13.29324065,.00013198,50.0021,237.2763,240.1702,119.9039,0,U,67529,999,2442,.3724672E-4,-.107E-5,0
HULIANWANG DIGUI-154,2026-013J,2026-07-19T19:04:53.168448,13.29332412,.00012813,50.0046,238.3508,236.9257,123.1493,0,U,67530,999,2438,.22691066E-4,-.114E-5,0
STARLINK-36587,2026-014A,2026-07-20T03:15:29.486880,15.33451084,.00019058,97.2866,87.4264,104.1617,255.9838,0,U,67532,999,2908,.51606295E-3,.16626E-3,0
STARLINK-36417,2026-014B,2026-07-19T06:14:44.380896,15.33462941,.00017526,97.2855,86.4732,81.7630,278.3812,0,U,67533,999,2894,.29707395E-3,.9533E-4,0
STARLINK-36576,2026-014C,2026-07-19T05:59:03.808032,15.33442683,.00013868,97.2852,86.4888,101.2416,258.8983,0,U,67534,999,2894,.16146548E-3,.5141E-4,0
STARLINK-36574,2026-014D,2026-07-20T03:27:12.286944,15.33445901,.0001602,97.2854,87.4164,60.2502,299.8900,0,U,67535,999,2908,.29551262E-3,.9478E-4,0
STARLINK-36572,2026-014E,2026-07-19T06:02:58.862688,15.33444527,.00019075,97.2858,86.4846,94.0567,266.0893,0,U,67536,999,2894,.25422061E-3,.8141E-4,0
STARLINK-36561,2026-014F,2026-07-19T23:04:52.678848,15.33455604,.00026564,97.2832,87.2013,93.3161,266.8386,0,U,67537,999,2905,.29992699E-3,.9624E-4,0
STARLINK-36397,2026-014G,2026-07-19T16:25:31.193184,15.33433847,.0001934,97.2850,86.9654,102.5279,257.6181,0,U,67538,999,2901,.8237689E-4,.2584E-4,0
STARLINK-36573,2026-014H,2026-07-19T23:00:57.784032,15.33448550,.00013157,97.2867,87.2077,83.9376,276.2017,0,U,67539,999,2905,.28040313E-3,.8989E-4,0
STARLINK-36585,2026-014J,2026-07-19T16:37:15.716064,15.33448487,.00017826,97.2853,86.9572,87.5905,272.5542,0,U,67540,999,2901,.27977195E-3,.8969E-4,0
